ORBCOMM FM37 [-]        
1 33064U 08031E   23336.57494035  .00003522  00000+0  54145-3 0  9995
2 33064  48.4385 128.8770 0005566 136.2367 337.2805 14.75510998831170
ORBCOMM FM40 [-]        
1 33065U 08031F   23336.56996823  .00004668  00000+0  68966-3 0  9995
2 33065  48.4409 119.6960 0006922 142.7513 340.3647 14.76634981831314
VESSELSAT 1 [-]         
1 37840U 11058C   23337.11470122  .00000458  00000+0  10581-3 0  9997
2 37840  19.9617 254.2407 0013854 124.9476 235.2231 14.11090305627046
ORBCOMM FM109 [+]       
1 40086U 14040A   23336.58732513  .00001609  00000+0  39862-3 0  9994
2 40086  47.0021 148.9550 0002443 247.3298 112.7328 14.56135215499137
ORBCOMM FM107 [+]       
1 40087U 14040B   23336.62136652  .00001989  00000+0  48383-3 0  9991
2 40087  47.0027 149.7334 0001931 214.7439 145.3320 14.56148698499097
ORBCOMM FM106 [-]       
1 40088U 14040C   23337.12349167  .00001951  00000+0  38219-3 0  9991
2 40088  47.0617  12.1446 0018561 337.9940  22.0152 14.66311474501118
ORBCOMM FM111 [-]       
1 40089U 14040D   23336.95896557  .00004098  00000+0  55098-3 0  9991
2 40089  47.0051 292.4490 0033093  30.4511 329.8297 14.80519482506768
ORBCOMM FM104 [-]       
1 40090U 14040E   23336.70710933  .00001274  00000+0  33329-3 0  9995
2 40090  47.0040 176.4964 0017090 159.0002 201.1587 14.54674877498672
